satname,norad_id,inclination_deg,eccentricity,mean_motion_rev_per_day,perigee_km,apogee_km,l1,l2
STARLINK-1276,45368,53.053,0.0001331,15.06396701,546.2999036777537,548.1434341554186,1 45368U 20019J   25287.19069863 -.00001081  00000+0 -53723-4 0  9999,2 45368  53.0530 104.2778 0001331  92.1392 267.9749 15.06396701307650
STARLINK-1277,45369,53.0533,0.000143,15.06405733,546.2036648435396,548.1843095058712,1 45369U 20019K   25286.98436023  .00000663  00000+0  63396-4 0  9992,2 45369  53.0533 105.8319 0001430  86.9796 273.1357 15.06405733307617
STARLINK-1281,45370,53.0531,0.0001351,15.06402225,546.2691249732388,548.1403523110212,1 45370U 20019L   25286.98060238  .00004208  00000+0  30119-3 0  9990,2 45370  53.0531 105.2216 0001351  86.5226 273.5918 15.06402225307624
STARLINK-1300,45374,53.053,0.0001457,15.06395107,546.2175288492845,548.2355797890132,1 45374U 20019Q   25287.20177091  .00003654  00000+0  26408-3 0  9996,2 45374  53.0530 104.2258 0001457  86.1066 274.0089 15.06395107307655
STARLINK-1302,45375,53.0536,0.0001484,15.06386947,546.2238361293112,548.2792914550446,1 45375U 20019R   25287.21651121  .00001134  00000+0  95018-4 0  9994,2 45375  53.0536 104.1620 0001484  86.6472 273.4687 15.06386947307659
STARLINK-1304,45376,53.0519,0.0001216,15.06382482,546.423119692101,548.1073775189625,1 45376U 20019S   25286.96956631  .00007086  00000+0  49437-3 0  9995,2 45376  53.0519 105.2698 0001216  90.7609 269.3520 15.06382482307615
STARLINK-1305,45377,53.0539,0.0001688,15.10301832,534.111773193903,536.4457423537278,1 45377U 20019T   25287.33335648  .01711588  00000+0  94306-1 0  9990,2 45377  53.0539 103.6084 0001688  65.6968 341.6135 15.10301832  5808
STARLINK-1319,45379,53.0539,0.0001467,15.06405703,546.1781330504955,548.2100251891097,1 45379U 20019V   25286.98796620  .00000432  00000+0  47882-4 0  9991,2 45379  53.0539 105.1895 0001467  93.0074 267.1083 15.06405703307621
STARLINK-1266,45383,53.0532,0.0001463,15.0640481,546.1836396829867,548.2099923575533,1 45383U 20019Z   25286.72441950  .00001252  00000+0  10291-3 0  9995,2 45383  53.0532  86.3722 0001463  89.5345 270.5811 15.06404810307855
STARLINK-1267,45384,53.0544,9.48e-05,15.06390595,546.583857282767,547.8969088345957,1 45384U 20019AA  25287.17418974 -.00001429  00000+0 -77111-4 0  9999,2 45384  53.0544  85.0084 0000948  84.9738 275.1359 15.06390595307917
STARLINK-1272,45386,53.0534,0.0001965,15.06942188,544.1898235001008,546.9108326200285,1 45386U 20019AC  25287.18128565  .00204188  00000+0  13142-1 0  9992,2 45386  53.0534  84.3188 0001965 162.5851 197.5206 15.06942188307924
STARLINK-1274,45387,53.0372,0.0005911,15.27399129,479.53477505758383,487.6467095945618,1 45387U 20019AD  25287.19216034  .00082706  00000+0  30205-2 0  9993,2 45387  53.0372  72.1967 0005911 158.7422 201.3823 15.27399129308093
STARLINK-1280,45388,53.0546,0.0001333,15.11576594,530.4702979781423,532.3123782330804,1 45388U 20019AE  25287.33335648  .00074633  00000+0  43200-2 0  9992,2 45388  53.0546 103.5647 0001333  85.2968 106.2954 15.11576594  5801
STARLINK-1283,45389,53.0528,0.0001402,15.26680229,484.78234104962485,486.70697346632005,1 45389U 20019AF  25287.33335648  .00069060  00000+0  25856-2 0  9998,2 45389  53.0528  82.8061 0001402  94.5581 238.5494 15.26680229  5751
STARLINK-1284,45390,53.0527,0.0001412,15.0641742,546.1803169838959,548.1360203395261,1 45390U 20019AG  25286.86080789  .00002086  00000+0  15885-3 0  9997,2 45390  53.0527  85.7592 0001412  93.1060 267.0090 15.06417420307877
STARLINK-1292,45394,53.0478,0.000641,15.83860533,315.2419141619048,323.82832982229866,1 45394U 20019AL  25287.33335648  .00307454  00000+0  13091-2 0  9994,2 45394  53.0478  43.9910 0006410 300.0847 314.9063 15.83860533  6007
STARLINK-1297,45395,53.0537,0.0001185,15.06385201,546.4362559342171,548.0775742920987,1 45395U 20019AM  25287.16305898  .00001537  00000+0  12212-3 0  9998,2 45395  53.0537  84.4011 0001185  92.6880 267.4244 15.06385201307108
STARLINK-1307,45397,53.0535,0.0001086,15.06398711,546.4634152580174,547.967601822872,1 45397U 20019AP  25287.15568286  .00001938  00000+0  14899-3 0  9999,2 45397  53.0535  84.4334 0001086  88.5747 271.5367 15.06398711307744
STARLINK-1312,45398,53.0466,0.0003055,15.84825113,314.77191270665753,318.86252973582395,1 45398U 20019AQ  25287.33335648  .00397249  00000+0  15994-2 0  9993,2 45398  53.0466  43.5398 0003055 256.9725 155.0749 15.84825113  5998
STARLINK-1255,45399,53.0542,0.0001614,15.1401311,522.8622999134059,525.0903020869691,1 45399U 20019AR  25287.33335648  .02196941  00000+0  10833+0 0  9996,2 45399  53.0542  73.5314 0001614  92.7086  21.7040 15.14013110  5756
STARLINK-1259,45403,53.0458,0.0002138,16.00425107,271.818544300364,274.66267336590136,1 45403U 20019AV  25287.33335648  .00498053  11950-3  93128-3 0  9991,2 45403  53.0458  23.2419 0002138  14.8073 109.4732 16.00425107  6010
STARLINK-1260,45404,53.052,0.0002201,15.06403385,545.6769164860634,548.7254503544045,1 45404U 20019AW  25286.16140154  .00000038  00000+0  21496-4 0  9990,2 45404  53.0520  78.8971 0002201  91.1148 269.0093 15.06403385307625
STARLINK-1263,45405,53.0546,0.0001273,15.06399531,546.3313983016933,548.0945924105108,1 45405U 20019AX  25287.14187442 -.00000118  00000+0  11000-4 0  9991,2 45405  53.0546  74.4968 0001273  90.5442 269.5693 15.06399531307774
STARLINK-1265,45406,53.0538,0.0001267,15.06398921,546.337422838561,548.0923070011313,1 45406U 20019AY  25287.14923910  .00001204  00000+0  99700-4 0  9999,2 45406  53.0538  74.4636 0001267  86.4637 273.6497 15.06398921307771
STARLINK-1278,45408,53.0529,0.0001638,15.07434808,542.9079820063025,545.1756877926155,1 45408U 20019BA  25286.97655874  .00483990  00000+0  29821-1 0  9992,2 45408  53.0529 105.2353 0001638 103.2977 256.8195 15.07434808307335
STARLINK-1296,45412,53.0537,0.0001306,15.06400579,546.3053330973262,548.1142336771481,1 45412U 20019BE  25287.15291913  .00001327  00000+0  10793-3 0  9998,2 45412  53.0537  74.4462 0001306  85.9400 274.1739 15.06400579307778
STARLINK-1298,45413,53.0493,0.000751,15.4834024,416.47449823795796,426.68767480391216,1 45413U 20019BF  25287.00005787  .00096533  00000+0  17800-2 0  9993,2 45413  53.0493  56.7312 0007510 210.8896 281.0689 15.48340240  5857
STARLINK-1309,45414,53.0524,0.0001654,15.0640636,546.0466160954275,548.3375149503026,1 45414U 20019BG  25286.83591900  .00001473  00000+0  11778-3 0  9999,2 45414  53.0524  75.8692 0001654  91.7669 268.3509 15.06406360307712
STARLINK-1316,45415,53.0553,0.0001678,15.06354705,546.1882872851238,548.5124808512173,1 45415U 20019BH  25287.12712670  .00009297  00000+0  64297-3 0  9998,2 45415  53.0553  74.5601 0001678  81.4975 278.6205 15.06354705307793
STARLINK-1318,45416,53.0525,0.0002342,15.58240622,391.1631290095693,394.33461195130167,1 45416U 20019BJ  25287.06194080  .00056205  00000+0  73128-3 0  9995,2 45416  53.0525  49.0662 0002342 338.2610  21.8302 15.58240622308139
STARLINK-1286,45417,53.0539,0.0001846,15.0822642,540.3421062988145,542.8968803961588,1 45417U 20019BK  25287.33335648  .00083225  00000+0  52731-2 0  9991,2 45417  53.0539 103.6248 0001846  76.6698 121.9994 15.08226420  5801
STARLINK-1308,45419,53.0529,0.0001265,15.06405534,546.3185426302134,548.0706515242737,1 45419U 20019BM  25286.96216638  .00000752  00000+0  69349-4 0  9997,2 45419  53.0529 105.3033 0001265  91.3241 268.7893 15.06405534307352
STARLINK-1329,45531,53.0587,0.0002091,15.06592366,545.1740794703901,548.070013703672,1 45531U 20025A   25286.59902377 -.00044929  00000+0 -30006-2 0  9992,2 45531  53.0587  46.9331 0002091  47.2855 312.8310 15.06592366302924
STARLINK-1338,45532,53.0541,0.0001434,15.06410993,546.1847760296369,548.1709563332588,1 45532U 20025B   25286.61016976  .00004611  00000+0  32816-3 0  9991,2 45532  53.0541  46.8797 0001434  90.3734 269.7419 15.06410993302920
STARLINK-1350,45535,53.0753,7.27e-05,15.31713244,470.20260534787667,471.19842632268046,1 45535U 20025E   25287.19695325  .00013313  00000+0  43980-3 0  9992,2 45535  53.0753 358.8997 0000727  88.2686 271.8398 15.31713244303678
STARLINK-1362,45538,53.0547,0.0001207,15.06384299,546.423784280656,548.0955750391267,1 45538U 20025H   25287.30582650 -.00004556  00000+0 -28728-3 0  9998,2 45538  53.0547  43.4788 0001207  93.1169 266.9958 15.06384299303035
STARLINK-1368,45540,53.0536,0.0001449,15.06378044,546.2753579765986,548.2823434901411,1 45540U 20025K   25287.31050201 -.00001370  00000+0 -73118-4 0  9999,2 45540  53.0536  43.7350 0001449  87.6423 272.4732 15.06378044303025
STARLINK-1371,45542,53.0533,0.0001513,15.06417767,546.1093081792769,548.2049021755029,1 45542U 20025M   25286.61751584  .00002377  00000+0  17835-3 0  9994,2 45542  53.0533  46.8487 0001513  90.7082 269.4080 15.06417767302923
STARLINK-1372,45543,53.056,0.0001659,15.06384141,546.1112405260947,548.4090873050818,1 45543U 20025N   25287.31787423 -.00000327  00000+0 -30376-5 0  9996,2 45543  53.0560  43.7062 0001659  88.5578 271.5601 15.06384141302129
STARLINK-1373,45544,53.0544,0.0001478,15.06411849,546.1516815484147,548.1988038473555,1 45544U 20025P   25287.07089576  .00002182  00000+0  16526-3 0  9992,2 45544  53.0544  44.8132 0001478  89.8221 270.2937 15.06411849302999
STARLINK-1294,45551,53.0514,0.0007179,15.56801616,392.05679132848127,401.78441903800285,1 45551U 20025W   25287.30439061  .00059803  00000+0  81951-3 0  9990,2 45551  53.0514 343.2255 0007179 351.0101   9.0780 15.56801616303884
STARLINK-1323,45553,53.0276,0.0004946,16.13615716,233.67113881752357,240.21477591134862,1 45553U 20025Y   25287.53709453  .00985962  62092-3  80400-3 0  9997,2 45553  53.0276 317.2981 0004946  45.4244 314.7194 16.13615716302960
STARLINK-1325,45554,53.0597,0.0001761,15.52999642,406.778629723467,409.16869789926204,1 45554U 20025Z   25287.33335648  .00229981  00000+0  35272-2 0  9992,2 45554  53.0597 335.8547 0001761  74.0098 344.2008 15.52999642  5673
